{"spkid": "50785797", "covariance": {"epoch": "2457951.5", "elements": [{"label": "e", "units": null, "title": "eccentricity", "value": ".3220581367332779", "name": "e", "sigma": 4.59164610979139e-07}, {"units": "au", "title": "perihelion distance", "value": ".8798020898949946", "sigma": 7.26534608444829e-07, "name": "q", "label": "q"}, {"label": "tp", "sigma": 6.79031520491461e-05, "name": "tp", "value": "2458104.080620348747", "title": "time of perihelion passage", "units": "TDB"}, {"label": "node", "units": "deg", "title": "longitude of the ascending node", "value": "208.0296081251373", "name": "om", "sigma": 6.37365169542323e-06}, {"units": "deg", "title": "argument of perihelion", "value": "249.3536147913059", "name": "w", "sigma": 0.000132430870206591, "label": "peri"}, {"label": "i", "title": "inclination", "value": "15.10599798794007", "units": "deg", "name": "i", "sigma": 2.54100190589751e-05}], "data": [["2.108321399756241E-13", "-3.335356513950251E-13", "3.011370751097431E-11", "1.344764098164691E-12", "6.020676065543025E-11", "4.178613404713028E-12"], ["-3.335356513950251E-13", "5.278525372680814E-13", "-4.777603412860146E-11", "-2.135689693555352E-12", "-9.539914378128957E-11", "-6.707419234479459E-12"], ["3.011370751097431E-11", "-4.777603412860146E-11", "4.610838058209453E-9", "2.170378450472697E-10", "8.909763368735032E-9", "8.468298835474313E-10"], ["1.344764098164691E-12", "-2.135689693555352E-12", "2.170378450472697E-10", "4.062343593457148E-11", "3.783368777664423E-10", "2.556150303231771E-12"], ["6.020676065543025E-11", "-9.539914378128957E-11", "8.909763368735032E-9", "3.783368777664423E-10", "1.753793538367501E-8", "1.489821533580987E-9"], ["4.178613404713028E-12", "-6.707419234479459E-12", "8.468298835474313E-10", "2.556150303231771E-12", "1.489821533580987E-9", "6.456690685774782E-10"]], "labels": ["e", "q", "tp", "node", "peri", "i"]}, "elements": [{"label": "e", "name": "e", "sigma": "4.6131E-7", "units": null, "title": "eccentricity", "value": ".321974507640822"}, {"label": "a", "title": "semi-major axis", "value": "1.296755648466724", "units": "au", "sigma": "1.9163E-7", "name": "a"}, {"title": "perihelion distance", "value": ".8792333870211958", "units": "au", "name": "q", "sigma": "7.2756E-7", "label": "q"}, {"label": "i", "name": "i", "sigma": "2.5412E-5", "value": "15.09300277191953", "title": "inclination; angle with respect to x-y ecliptic plane", "units": "deg"}, {"sigma": "6.3001E-6", "name": "om", "value": "207.9537140811245", "title": "longitude of the ascending node", "units": "deg", "label": "node"}, {"label": "peri", "sigma": ".00013239", "name": "w", "units": "deg", "title": "argument of perihelion", "value": "249.5701833388403"}, {"label": "M", "units": "deg", "title": "mean anomaly", "value": "266.416347033811", "name": "ma", "sigma": ".00041226"}, {"sigma": ".00064874", "name": "tp", "units": "TDB", "title": "time of perihelion passage", "value": "2461340.711340757463", "label": "tp"}, {"label": "period", "value": "539.3685870642742", "title": "sidereal orbital period", "units": "d", "name": "per", "sigma": ".00011956"}, {"label": "n", "name": "n", "sigma": "1.4795E-7", "units": "deg/d", "value": ".6674471013587233", "title": "mean motion"}, {"label": "Q", "units": "au", "value": "1.714277909912253", "title": "aphelion distance", "name": "ad", "sigma": "2.5333E-7"}], "epoch": "2461200.5"}